{
  "type" : "FeatureCollection",
  "features" : [{"type":"Feature","id":1,"geometry":{"type":"Point","coordinates":[35.166571439041952,31.93534119665625]},"properties":{"OBJECTID":1,"OBJECTID_1":1,"NAME_AR":"صيدلية الريحان","NEAR_FID":2,"NEAR_DIST":64.986975895123066}},{"type":"Feature","id":2,"geometry":{"type":"Point","coordinates":[35.178554776501159,31.916576820946126]},"properties":{"OBJECTID":2,"OBJECTID_1":2,"NAME_AR":"صيدلية الطيرة","NEAR_FID":6,"NEAR_DIST":376.89880843750922}},{"type":"Feature","id":3,"geometry":{"type":"Point","coordinates":[35.182950642691573,31.917323010650836]},"properties":{"OBJECTID":3,"OBJECTID_1":3,"NAME_AR":"Right Aid","NEAR_FID":7,"NEAR_DIST":174.23714335939874}},{"type":"Feature","id":4,"geometry":{"type":"Point","coordinates":[35.184448452472139,31.913684574363113]},"properties":{"OBJECTID":4,"OBJECTID_1":4,"NAME_AR":"صيدية ميجا فارم","NEAR_FID":8,"NEAR_DIST":277.24485304363685}},{"type":"Feature","id":5,"geometry":{"type":"Point","coordinates":[35.199408260817158,31.905190944036885]},"properties":{"OBJECTID":5,"OBJECTID_1":5,"NAME_AR":" صيدلية البرغوثي","NEAR_FID":20,"NEAR_DIST":243.79658116703789}},{"type":"Feature","id":6,"geometry":{"type":"Point","coordinates":[35.20000583874009,31.908525392395227]},"properties":{"OBJECTID":6,"OBJECTID_1":6,"NAME_AR":"صيدلية البراء","NEAR_FID":39,"NEAR_DIST":163.40626578407037}},{"type":"Feature","id":7,"geometry":{"type":"Point","coordinates":[35.204850972978811,31.909464047923056]},"properties":{"OBJECTID":7,"OBJECTID_1":7,"NAME_AR":"شركة بيوتك للتوريدات الطبية","NEAR_FID":17,"NEAR_DIST":48.159447235894703}},{"type":"Feature","id":8,"geometry":{"type":"Point","coordinates":[35.206911095394879,31.909004509414761]},"properties":{"OBJECTID":8,"OBJECTID_1":8,"NAME_AR":"صيدلية فارما ون","NEAR_FID":17,"NEAR_DIST":172.33061184444949}},{"type":"Feature","id":9,"geometry":{"type":"Point","coordinates":[35.20718403456214,31.907053357356169]},"properties":{"OBJECTID":9,"OBJECTID_1":9,"NAME_AR":"Pharmsy One","NEAR_FID":19,"NEAR_DIST":68.971498135821093}},{"type":"Feature","id":10,"geometry":{"type":"Point","coordinates":[35.207170515422149,31.906137710639047]},"properties":{"OBJECTID":10,"OBJECTID_1":10,"NAME_AR":"صيدلية الكردي","NEAR_FID":19,"NEAR_DIST":50.547859436441342}},{"type":"Feature","id":11,"geometry":{"type":"Point","coordinates":[35.207222372808289,31.905952656285212]},"properties":{"OBJECTID":11,"OBJECTID_1":11,"NAME_AR":"صيدلية نبيل","NEAR_FID":19,"NEAR_DIST":70.383992104291906}},{"type":"Feature","id":12,"geometry":{"type":"Point","coordinates":[35.205761931408176,31.907324173206064]},"properties":{"OBJECTID":12,"OBJECTID_1":12,"NAME_AR":"  البرغوثي دنت","NEAR_FID":19,"NEAR_DIST":137.41516226151572}},{"type":"Feature","id":13,"geometry":{"type":"Point","coordinates":[35.205434606981505,31.906791986581112]},"properties":{"OBJECTID":13,"OBJECTID_1":13,"NAME_AR":" صيدلية ابو غزاله","NEAR_FID":19,"NEAR_DIST":137.53874747311218}},{"type":"Feature","id":14,"geometry":{"type":"Point","coordinates":[35.204524653424507,31.905493391725493]},"properties":{"OBJECTID":14,"OBJECTID_1":14,"NAME_AR":"صيدلية فراس","NEAR_FID":19,"NEAR_DIST":246.56603953070757}},{"type":"Feature","id":15,"geometry":{"type":"Point","coordinates":[35.206155617980663,31.905692723151432]},"properties":{"OBJECTID":15,"OBJECTID_1":15,"NAME_AR":" صيدلية غوشة","NEAR_FID":19,"NEAR_DIST":111.03988988595982}},{"type":"Feature","id":16,"geometry":{"type":"Point","coordinates":[35.206631293752665,31.907328908637222]},"properties":{"OBJECTID":16,"OBJECTID_1":16,"NAME_AR":"Dara Shop","NEAR_FID":19,"NEAR_DIST":94.037810929320329}},{"type":"Feature","id":17,"geometry":{"type":"Point","coordinates":[35.204757509648076,31.905886055848903]},"properties":{"OBJECTID":17,"OBJECTID_1":17,"NAME_AR":" صيدلية صيام","NEAR_FID":19,"NEAR_DIST":209.19194307373039}},{"type":"Feature","id":18,"geometry":{"type":"Point","coordinates":[35.202758801179137,31.904413699951412]},"properties":{"OBJECTID":18,"OBJECTID_1":18,"NAME_AR":"صيدلية جراند فارم","NEAR_FID":20,"NEAR_DIST":110.50816804776926}},{"type":"Feature","id":19,"geometry":{"type":"Point","coordinates":[35.203765260735203,31.904642372565185]},"properties":{"OBJECTID":19,"OBJECTID_1":19,"NAME_AR":" صيدلية طوباسي","NEAR_FID":20,"NEAR_DIST":208.94920585778056}},{"type":"Feature","id":20,"geometry":{"type":"Point","coordinates":[35.20328975642294,31.904341010544311]},"properties":{"OBJECTID":20,"OBJECTID_1":20,"NAME_AR":" صيدلية الشفاء","NEAR_FID":20,"NEAR_DIST":157.46636320122224}},{"type":"Feature","id":21,"geometry":{"type":"Point","coordinates":[35.201823953436602,31.904355935698405]},"properties":{"OBJECTID":21,"OBJECTID_1":21,"NAME_AR":"صيدلية السلوادي","NEAR_FID":20,"NEAR_DIST":32.515345336099401}},{"type":"Feature","id":22,"geometry":{"type":"Point","coordinates":[35.197593932704791,31.90294413791576]},"properties":{"OBJECTID":22,"OBJECTID_1":22,"NAME_AR":"صيدلية رولا","NEAR_FID":40,"NEAR_DIST":55.032488962869735}},{"type":"Feature","id":23,"geometry":{"type":"Point","coordinates":[35.197144370733348,31.903096841341796]},"properties":{"OBJECTID":23,"OBJECTID_1":23,"NAME_AR":"ايمي","NEAR_FID":40,"NEAR_DIST":100.2339621770011}},{"type":"Feature","id":24,"geometry":{"type":"Point","coordinates":[35.188909281990384,31.898495328462335]},"properties":{"OBJECTID":24,"OBJECTID_1":24,"NAME_AR":"صيدلية الاوائل","NEAR_FID":48,"NEAR_DIST":108.62472556698192}},{"type":"Feature","id":25,"geometry":{"type":"Point","coordinates":[35.199387873452586,31.900494075741047]},"properties":{"OBJECTID":25,"OBJECTID_1":25,"NAME_AR":"صيدلية الماصيون","NEAR_FID":25,"NEAR_DIST":187.44923186388309}},{"type":"Feature","id":26,"geometry":{"type":"Point","coordinates":[35.204974946006082,31.902225949886969]},"properties":{"OBJECTID":26,"OBJECTID_1":26,"NAME_AR":"صيدلية الاقصى","NEAR_FID":47,"NEAR_DIST":95.92339795070987}},{"type":"Feature","id":27,"geometry":{"type":"Point","coordinates":[35.205080695058115,31.903407925332118]},"properties":{"OBJECTID":27,"OBJECTID_1":27,"NAME_AR":"صيدلية المدنية","NEAR_FID":47,"NEAR_DIST":178.28399143273461}},{"type":"Feature","id":28,"geometry":{"type":"Point","coordinates":[35.205666614048589,31.903060352032508]},"properties":{"OBJECTID":28,"OBJECTID_1":28,"NAME_AR":"    وايت دنتل صبلاي","NEAR_FID":47,"NEAR_DIST":122.68920878964487}},{"type":"Feature","id":29,"geometry":{"type":"Point","coordinates":[35.204945984799934,31.900405402356004]},"properties":{"OBJECTID":29,"OBJECTID_1":29,"NAME_AR":"  ريماس","NEAR_FID":47,"NEAR_DIST":198.64567777285254}},{"type":"Feature","id":30,"geometry":{"type":"Point","coordinates":[35.203763829758522,31.903503312003497]},"properties":{"OBJECTID":30,"OBJECTID_1":30,"NAME_AR":" صيدلية الوفاء","NEAR_FID":20,"NEAR_DIST":210.8865674127166}},{"type":"Feature","id":31,"geometry":{"type":"Point","coordinates":[35.205680772361134,31.900132607438152]},"properties":{"OBJECTID":31,"OBJECTID_1":31,"NAME_AR":" صيدلية سناء","NEAR_FID":47,"NEAR_DIST":206.40837441322137}},{"type":"Feature","id":32,"geometry":{"type":"Point","coordinates":[35.204440142150283,31.897871571706055]},"properties":{"OBJECTID":32,"OBJECTID_1":32,"NAME_AR":"صيدلية مطرية 3","NEAR_FID":27,"NEAR_DIST":118.81897552221923}},{"type":"Feature","id":33,"geometry":{"type":"Point","coordinates":[35.205847883503857,31.89641909118869]},"properties":{"OBJECTID":33,"OBJECTID_1":33,"NAME_AR":"صيدلية اسامه الكبرى","NEAR_FID":27,"NEAR_DIST":180.63012476319554}},{"type":"Feature","id":34,"geometry":{"type":"Point","coordinates":[35.204223818659763,31.89378601657776]},"properties":{"OBJECTID":34,"OBJECTID_1":34,"NAME_AR":"صيدلية ماكس كير","NEAR_FID":28,"NEAR_DIST":230.70013008601464}},{"type":"Feature","id":35,"geometry":{"type":"Point","coordinates":[35.199720443529614,31.89742065273532]},"properties":{"OBJECTID":35,"OBJECTID_1":35,"NAME_AR":"الامنية ميديكال للمستلزمات الطبية","NEAR_FID":30,"NEAR_DIST":55.264385498353448}},{"type":"Feature","id":36,"geometry":{"type":"Point","coordinates":[35.199589108603575,31.892531997461891]},"properties":{"OBJECTID":36,"OBJECTID_1":36,"NAME_AR":"صيدلية الاكسير","NEAR_FID":31,"NEAR_DIST":61.63910251795231}},{"type":"Feature","id":37,"geometry":{"type":"Point","coordinates":[35.205877000571427,31.919614896490575]},"properties":{"OBJECTID":37,"OBJECTID_1":37,"NAME_AR":"صيدلية المهدي","NEAR_FID":38,"NEAR_DIST":324.66112284936224}},{"type":"Feature","id":38,"geometry":{"type":"Point","coordinates":[35.197623805510936,31.905019336831508]},"properties":{"OBJECTID":38,"OBJECTID_1":38,"NAME_AR":" صيدلية الشعب","NEAR_FID":46,"NEAR_DIST":78.1255759220371}},{"type":"Feature","id":39,"geometry":{"type":"Point","coordinates":[35.205748451430807,31.897637327382476]},"properties":{"OBJECTID":39,"OBJECTID_1":39,"NAME_AR":"صيدلية المجمع","NEAR_FID":27,"NEAR_DIST":45.308217206455161}},{"type":"Feature","id":40,"geometry":{"type":"Point","coordinates":[35.205765716840872,31.897636127823098]},"properties":{"OBJECTID":40,"OBJECTID_1":40,"NAME_AR":"صيدلية المجمع","NEAR_FID":27,"NEAR_DIST":45.700476619234749}},{"type":"Feature","id":41,"geometry":{"type":"Point","coordinates":[35.199414020231146,31.905192219451386]},"properties":{"OBJECTID":41,"OBJECTID_1":41,"NAME_AR":" صيدلية البرغوثي","NEAR_FID":20,"NEAR_DIST":243.39329405043804}},{"type":"Feature","id":42,"geometry":{"type":"Point","coordinates":[35.204850972978811,31.909464047923056]},"properties":{"OBJECTID":42,"OBJECTID_1":42,"NAME_AR":"شركة بيوتك للتوريدات الطبية","NEAR_FID":17,"NEAR_DIST":48.159447235894703}},{"type":"Feature","id":43,"geometry":{"type":"Point","coordinates":[35.206911095394879,31.909004509414761]},"properties":{"OBJECTID":43,"OBJECTID_1":43,"NAME_AR":"صيدلية فارما ون","NEAR_FID":17,"NEAR_DIST":172.33061184444949}},{"type":"Feature","id":44,"geometry":{"type":"Point","coordinates":[35.205429890857893,31.906793887641868]},"properties":{"OBJECTID":44,"OBJECTID_1":44,"NAME_AR":" صيدلية ابو غزاله","NEAR_FID":19,"NEAR_DIST":138.02186336465203}},{"type":"Feature","id":45,"geometry":{"type":"Point","coordinates":[35.205842636217341,31.896421674950897]},"properties":{"OBJECTID":45,"OBJECTID_1":45,"NAME_AR":"صيدلية اسامه الكبرى","NEAR_FID":27,"NEAR_DIST":180.30175059409177}},{"type":"Feature","id":46,"geometry":{"type":"Point","coordinates":[35.201796890430487,31.904309550879745]},"properties":{"OBJECTID":46,"OBJECTID_1":46,"NAME_AR":"صيدلية السلوادي","NEAR_FID":20,"NEAR_DIST":26.789102336770384}},{"type":"Feature","id":47,"geometry":{"type":"Point","coordinates":[35.196750736535684,31.904624882231992]},"properties":{"OBJECTID":47,"OBJECTID_1":47,"NAME_AR":" صيدلية رام الله القديمة","NEAR_FID":46,"NEAR_DIST":46.940636023261845}},{"type":"Feature","id":48,"geometry":{"type":"Point","coordinates":[35.204977333047012,31.902232690987052]},"properties":{"OBJECTID":48,"OBJECTID_1":48,"NAME_AR":"صيدلية الاقصى","NEAR_FID":47,"NEAR_DIST":95.922509347087782}},{"type":"Feature","id":49,"geometry":{"type":"Point","coordinates":[35.205890772395108,31.919612924994031]},"properties":{"OBJECTID":49,"OBJECTID_1":49,"NAME_AR":"صيدلية المهدي","NEAR_FID":38,"NEAR_DIST":324.21546936413307}},{"type":"Feature","id":50,"geometry":{"type":"Point","coordinates":[35.199588055341749,31.892540256299288]},"properties":{"OBJECTID":50,"OBJECTID_1":50,"NAME_AR":"صيدلية الاكسير","NEAR_FID":31,"NEAR_DIST":61.57232484504982}},{"type":"Feature","id":51,"geometry":{"type":"Point","coordinates":[35.197145905130945,31.903091095939189]},"properties":{"OBJECTID":51,"OBJECTID_1":51,"NAME_AR":"ايمي","NEAR_FID":40,"NEAR_DIST":99.804424100896298}},{"type":"Feature","id":52,"geometry":{"type":"Point","coordinates":[35.197592804433761,31.902947929103103]},"properties":{"OBJECTID":52,"OBJECTID_1":52,"NAME_AR":"صيدلية رولا","NEAR_FID":40,"NEAR_DIST":55.356662402582174}}]
}